start=new Date('2022-09-18T00:00:00.000Z').valueOf();
sats=[{"RA_OF_ASC_NODE":"82.4063","CENTER_NAME":"EARTH","NORAD_CAT_ID":"45361","OBJECT_TYPE":"PAYLOAD","ELEMENT_SET_NO":"999","BSTAR":"0.00004029700000","FILE":"3576621","MEAN_ELEMENT_THEORY":"SGP4","TIME_SYSTEM":"UTC","PERIOD":"95.592","EPHEMERIS_TYPE":"0","ECCENTRICITY":"0.00014590","TLE_LINE1":"1 45361U 20019B   22260.90880580  .00000319  00000-0  40297-4 0  9990","REF_FRAME":"TEME","OBJECT_ID":"2020-019B","ARG_OF_PERICENTER":"82.2499","OBJECT_NAME":"STARLINK-1301","MEAN_MOTION_DOT":"0.00000319","TLE_LINE2":"2 45361  53.0554  82.4063 0001459  82.2499 277.8656 15.06395632138776","COUNTRY_CODE":"US","SITE":"AFETR","DECAY_DATE":null,"PERIAPSIS":"546.217","RCS_SIZE":"LARGE","EPOCH":"2022-09-17T21:48:40.821120","MEAN_ANOMALY":"277.8656","INCLINATION":"53.0554","APOAPSIS":"548.237","SEMIMAJOR_AXIS":"6925.362","CLASSIFICATION_TYPE":"U","LAUNCH_DATE":"2020-03-18","MEAN_MOTION_DDOT":"0.0000000000000","REV_AT_EPOCH":"13877","GP_ID":"212867931","MEAN_MOTION":"15.06395632"},{"REF_FRAME":"TEME","TLE_LINE1":"1 45362U 20019C   22260.82219744 -.00000877  00000-0 -39982-4 0  9990","OBJECT_ID":"2020-019C","ECCENTRICITY":"0.00013220","OBJECT_NAME":"STARLINK-1306","ARG_OF_PERICENTER":"83.0231","MEAN_MOTION_DOT":"-0.00000877","OBJECT_TYPE":"PAYLOAD","ELEMENT_SET_NO":"999","BSTAR":"-0.00003998200000","RA_OF_ASC_NODE":"102.7921","NORAD_CAT_ID":"45362","CENTER_NAME":"EARTH","PERIOD":"95.593","EPHEMERIS_TYPE":"0","TIME_SYSTEM":"UTC","MEAN_ELEMENT_THEORY":"SGP4","FILE":"3576621","CLASSIFICATION_TYPE":"U","SEMIMAJOR_AXIS":"6925.381","APOAPSIS":"548.162","GP_ID":"212867654","MEAN_MOTION":"15.06389365","LAUNCH_DATE":"2020-03-18","REV_AT_EPOCH":"13847","MEAN_MOTION_DDOT":"0.0000000000000","COUNTRY_CODE":"US","PERIAPSIS":"546.331","DECAY_DATE":null,"SITE":"AFETR","TLE_LINE2":"2 45362  53.0552 102.7921 0001322  83.0231 277.0909 15.06389365138472","EPOCH":"2022-09-17T19:43:57.858816","INCLINATION":"53.0552","MEAN_ANOMALY":"277.0909","RCS_SIZE":"LARGE"},{"RA_OF_ASC_NODE":"72.6643","NORAD_CAT_ID":"45364","CENTER_NAME":"EARTH","OBJECT_TYPE":"PAYLOAD","BSTAR":"-0.00002008300000","ELEMENT_SET_NO":"999","TIME_SYSTEM":"UTC","MEAN_ELEMENT_THEORY":"SGP4","FILE":"3576621","PERIOD":"95.593","EPHEMERIS_TYPE":"0","ECCENTRICITY":"0.00013590","REF_FRAME":"TEME","TLE_LINE1":"1 45364U 20019E   22260.85075874 -.00000580  00000-0 -20083-4 0  9992","OBJECT_ID":"2020-019E","ARG_OF_PERICENTER":"76.8548","OBJECT_NAME":"STARLINK-1313","MEAN_MOTION_DOT":"-0.00000580","TLE_LINE2":"2 45364  53.0541  72.6643 0001359  76.8548 283.2592 15.06390414138899","COUNTRY_CODE":"US","PERIAPSIS":"546.302","SITE":"AFETR","DECAY_DATE":null,"RCS_SIZE":"LARGE","EPOCH":"2022-09-17T20:25:05.555136","MEAN_ANOMALY":"283.2592","INCLINATION":"53.0541","APOAPSIS":"548.184","CLASSIFICATION_TYPE":"U","SEMIMAJOR_AXIS":"6925.378","MEAN_MOTION_DDOT":"0.0000000000000","LAUNCH_DATE":"2020-03-18","REV_AT_EPOCH":"13889","GP_ID":"212866432","MEAN_MOTION":"15.06390414"},{"OBJECT_ID":"2020-019F","REF_FRAME":"TEME","TLE_LINE1":"1 45365U 20019F   22260.90623020  .00003184  00000-0  23628-3 0  9999","ECCENTRICITY":"0.00013200","MEAN_MOTION_DOT":"0.00003184","ARG_OF_PERICENTER":"100.1374","OBJECT_NAME":"STARLINK-1317","BSTAR":"0.00023628000000","ELEMENT_SET_NO":"999","OBJECT_TYPE":"PAYLOAD","NORAD_CAT_ID":"45365","CENTER_NAME":"EARTH","RA_OF_ASC_NODE":"82.4090","EPHEMERIS_TYPE":"0","PERIOD":"95.631","TIME_SYSTEM":"UTC","MEAN_ELEMENT_THEORY":"SGP4","FILE":"3576621","CLASSIFICATION_TYPE":"U","SEMIMAJOR_AXIS":"6927.208","APOAPSIS":"549.988","MEAN_MOTION":"15.05793465","GP_ID":"212866682","MEAN_MOTION_DDOT":"0.0000000000000","LAUNCH_DATE":"2020-03-18","REV_AT_EPOCH":"13871","PERIAPSIS":"548.159","SITE":"AFETR","DECAY_DATE":null,"COUNTRY_CODE":"US","TLE_LINE2":"2 45365  53.0001  82.4090 0001320 100.1374 259.9763 15.05793465138715","INCLINATION":"53.0001","MEAN_ANOMALY":"259.9763","EPOCH":"2022-09-17T21:44:58.289280","RCS_SIZE":"LARGE"},{"MEAN_MOTION":"15.06385717","GP_ID":"212867431","REV_AT_EPOCH":"13849","LAUNCH_DATE":"2020-03-18","MEAN_MOTION_DDOT":"0.0000000000000","CLASSIFICATION_TYPE":"U","SEMIMAJOR_AXIS":"6925.392","APOAPSIS":"548.186","INCLINATION":"53.0551","MEAN_ANOMALY":"287.6358","EPOCH":"2022-09-17T20:58:16.701024","RCS_SIZE":"LARGE","PERIAPSIS":"546.329","DECAY_DATE":null,"SITE":"AFETR","COUNTRY_CODE":"US","TLE_LINE2":"2 45366  53.0551 102.5499 0001341  72.4778 287.6358 15.06385717138496","MEAN_MOTION_DOT":"-0.00000524","ARG_OF_PERICENTER":"72.4778","OBJECT_NAME":"STARLINK-1262","OBJECT_ID":"2020-019G","REF_FRAME":"TEME","TLE_LINE1":"1 45366U 20019G   22260.87380441 -.00000524  00000-0 -16301-4 0  9991","ECCENTRICITY":"0.00013410","EPHEMERIS_TYPE":"0","PERIOD":"95.593","TIME_SYSTEM":"UTC","FILE":"3576621","MEAN_ELEMENT_THEORY":"SGP4","BSTAR":"-0.00001630100000","ELEMENT_SET_NO":"999","OBJECT_TYPE":"PAYLOAD","NORAD_CAT_ID":"45366","CENTER_NAME":"EARTH","RA_OF_ASC_NODE":"102.5499"},{"RCS_SIZE":"LARGE","MEAN_ANOMALY":"277.3938","INCLINATION":"53.0562","EPOCH":"2022-09-17T19:54:33.878592","TLE_LINE2":"2 45367  53.0562 102.7391 0001414  82.7212 277.3938 15.06394270138483","PERIAPSIS":"546.252","DECAY_DATE":null,"SITE":"AFETR","COUNTRY_CODE":"US","LAUNCH_DATE":"2020-03-18","REV_AT_EPOCH":"13848","MEAN_MOTION_DDOT":"0.0000000000000","MEAN_MOTION":"15.06394270","GP_ID":"212868154","APOAPSIS":"548.210","CLASSIFICATION_TYPE":"U","SEMIMAJOR_AXIS":"6925.366","TIME_SYSTEM":"UTC","FILE":"3576621","MEAN_ELEMENT_THEORY":"SGP4","EPHEMERIS_TYPE":"0","PERIOD":"95.593","NORAD_CAT_ID":"45367","CENTER_NAME":"EARTH","RA_OF_ASC_NODE":"102.7391","ELEMENT_SET_NO":"999","BSTAR":"-0.00003456400000","OBJECT_TYPE":"PAYLOAD","MEAN_MOTION_DOT":"-0.00000796","ARG_OF_PERICENTER":"82.7212","OBJECT_NAME":"STARLINK-1273","ECCENTRICITY":"0.00014140","OBJECT_ID":"2020-019H","REF_FRAME":"TEME","TLE_LINE1":"1 45367U 20019H   22260.82955878 -.00000796  00000-0 -34564-4 0  9991"},{"CLASSIFICATION_TYPE":"U","SEMIMAJOR_AXIS":"6925.306","APOAPSIS":"547.985","GP_ID":"212866933","MEAN_MOTION":"15.06413848","MEAN_MOTION_DDOT":"0.0000000000000","LAUNCH_DATE":"2020-03-18","REV_AT_EPOCH":"13849","COUNTRY_CODE":"US","PERIAPSIS":"546.357","DECAY_DATE":null,"SITE":"AFETR","TLE_LINE2":"2 45368  53.0537 102.5956 0001175  82.7646 277.3476 15.06413848138497","EPOCH":"2022-09-17T20:47:38.336352","MEAN_ANOMALY":"277.3476","INCLINATION":"53.0537","RCS_SIZE":"LARGE","REF_FRAME":"TEME","TLE_LINE1":"1 45368U 20019J   22260.86641593  .00005623  00000-0  39596-3 0  9993","OBJECT_ID":"2020-019J","ECCENTRICITY":"0.00011750","ARG_OF_PERICENTER":"82.7646","OBJECT_NAME":"STARLINK-1276","MEAN_MOTION_DOT":"0.00005623","OBJECT_TYPE":"PAYLOAD","BSTAR":"0.00039596000000","ELEMENT_SET_NO":"999","RA_OF_ASC_NODE":"102.5956","NORAD_CAT_ID":"45368","CENTER_NAME":"EARTH","PERIOD":"95.591","EPHEMERIS_TYPE":"0","TIME_SYSTEM":"UTC","MEAN_ELEMENT_THEORY":"SGP4","FILE":"3576621"},{"EPHEMERIS_TYPE":"0","PERIOD":"95.594","FILE":"3576621","MEAN_ELEMENT_THEORY":"SGP4","TIME_SYSTEM":"UTC","BSTAR":"-0.00012947000000","ELEMENT_SET_NO":"999","OBJECT_TYPE":"PAYLOAD","CENTER_NAME":"EARTH","NORAD_CAT_ID":"45369","RA_OF_ASC_NODE":"102.5820","MEAN_MOTION_DOT":"-0.00002208","ARG_OF_PERICENTER":"81.9299","OBJECT_NAME":"STARLINK-1277","OBJECT_ID":"2020-019K","TLE_LINE1":"1 45369U 20019K   22260.86549983 -.00002208  00000-0 -12947-3 0  9993","REF_FRAME":"TEME","ECCENTRICITY":"0.00013460","INCLINATION":"53.0558","MEAN_ANOMALY":"278.1843","EPOCH":"2022-09-17T20:46:19.185312","RCS_SIZE":"LARGE","DECAY_DATE":null,"SITE":"AFETR","PERIAPSIS":"546.367","COUNTRY_CODE":"US","TLE_LINE2":"2 45369  53.0558 102.5820 0001346  81.9299 278.1843 15.06371961138492","MEAN_MOTION":"15.06371961","GP_ID":"212867183","LAUNCH_DATE":"2020-03-18","MEAN_MOTION_DDOT":"0.0000000000000","REV_AT_EPOCH":"13849","SEMIMAJOR_AXIS":"6925.434","CLASSIFICATION_TYPE":"U","APOAPSIS":"548.232"},{"COUNTRY_CODE":"US","DECAY_DATE":null,"SITE":"AFETR","PERIAPSIS":"546.210","TLE_LINE2":"2 45370  53.0541 102.3496 0001453  71.2750 288.8396 15.06399249138508","EPOCH":"2022-09-17T22:07:15.447648","INCLINATION":"53.0541","MEAN_ANOMALY":"288.8396","RCS_SIZE":"LARGE","SEMIMAJOR_AXIS":"6925.351","CLASSIFICATION_TYPE":"U","APOAPSIS":"548.222","GP_ID":"212867932","MEAN_MOTION":"15.06399249","LAUNCH_DATE":"2020-03-18","MEAN_MOTION_DDOT":"0.0000000000000","REV_AT_EPOCH":"13850","OBJECT_TYPE":"PAYLOAD","ELEMENT_SET_NO":"999","BSTAR":"0.00015836000000","RA_OF_ASC_NODE":"102.3496","CENTER_NAME":"EARTH","NORAD_CAT_ID":"45370","PERIOD":"95.592","EPHEMERIS_TYPE":"0","FILE":"3576621","MEAN_ELEMENT_THEORY":"SGP4","TIME_SYSTEM":"UTC","TLE_LINE1":"1 45370U 20019L   22260.92170657  .00002078  00000-0  15836-3 0  9993","REF_FRAME":"TEME","OBJECT_ID":"2020-019L","ECCENTRICITY":"0.00014530","ARG_OF_PERICENTER":"71.2750","OBJECT_NAME":"STARLINK-1281","MEAN_MOTION_DOT":"0.00002078"},{"MEAN_MOTION_DOT":"0.00000503","ARG_OF_PERICENTER":"83.7143","OBJECT_NAME":"STARLINK-1287","OBJECT_ID":"2020-019M","TLE_LINE1":"1 45371U 20019M   22260.88391412  .00000503  00000-0  52647-4 0  9996","REF_FRAME":"TEME","ECCENTRICITY":"0.00013030","EPHEMERIS_TYPE":"0","PERIOD":"95.593","FILE":"3576621","MEAN_ELEMENT_THEORY":"SGP4","TIME_SYSTEM":"UTC","ELEMENT_SET_NO":"999","BSTAR":"0.00005264700000","OBJECT_TYPE":"PAYLOAD","CENTER_NAME":"EARTH","NORAD_CAT_ID":"45371","RA_OF_ASC_NODE":"102.5065","MEAN_MOTION":"15.06388207","GP_ID":"212867655","LAUNCH_DATE":"2020-03-18","REV_AT_EPOCH":"13849","MEAN_MOTION_DDOT":"0.0000000000000","SEMIMAJOR_AXIS":"6925.385","CLASSIFICATION_TYPE":"U","APOAPSIS":"548.152","MEAN_ANOMALY":"276.3994","INCLINATION":"53.0533","EPOCH":"2022-09-17T21:12:50.179968","RCS_SIZE":"LARGE","SITE":"AFETR","DECAY_DATE":null,"PERIAPSIS":"546.347","COUNTRY_CODE":"US","TLE_LINE2":"2 45371  53.0533 102.5065 0001303  83.7143 276.3994 15.06388207138498"}];
